NORAD_CAT_ID,OBJECT_NAME,OBJECT_TYPE,EPOCH,MEAN_MOTION,ECCENTRICITY,INCLINATION,RA_OF_ASC_NODE,ARG_OF_PERICENTER,MEAN_ANOMALY,BSTAR,MEAN_MOTION_DOT,MEAN_MOTION_DDOT,TLE_LINE0,TLE_LINE1,TLE_LINE2,SEMIMAJOR_AXIS,PERIOD,APOGEE,PERIGEE,DECAYED
51738.0,STARLINK-3515,PAYLOAD,2023-06-03 17:47:25,15.08837609,0.0001006,53.2153,172.9509,88.8494,271.2613,-1.4996e-06,-3.12e-06,0.0,0 STARLINK-3515,1 51738U 22016AA  23154.74127295 -.00000312  00000-0 -14996-5 0  9999,2 51738  53.2153 172.9509 0001006  88.8494 271.2613 15.08837609 72206,6917.888,95.438,540.449,539.057,0.0
51738.0,STARLINK-3515,PAYLOAD,2023-06-04 01:44:21,15.088358,9.78e-05,53.2153,171.4642,85.5143,274.5961,1.3134e-05,-7.9e-07,0.0,0 STARLINK-3515,1 51738U 22016AA  23155.07247406 -.00000079  00000-0  13134-4 0  9994,2 51738  53.2153 171.4642 0000978  85.5143 274.5961 15.08835800 72258,6917.893,95.438,540.435,539.082,0.0
51738.0,STARLINK-3515,PAYLOAD,2023-06-04 08:05:54,15.08837133,9.8e-05,53.2153,170.2748,84.0989,276.0114,2.2558e-05,7.1e-07,0.0,0 STARLINK-3515,1 51738U 22016AA  23155.33743350  .00000071  00000-0  22558-4 0  9993,2 51738  53.2153 170.2748 0000980  84.0989 276.0114 15.08837133 72299,6917.889,95.438,540.432,539.076,0.0
51738.0,STARLINK-3515,PAYLOAD,2023-06-04 11:16:40,15.08836958,9.85e-05,53.2153,169.6803,84.1587,275.9517,2.1209e-05,5e-07,0.0,0 STARLINK-3515,1 51738U 22016AA  23155.46991376  .00000050  00000-0  21209-4 0  9999,2 51738  53.2153 169.6803 0000985  84.1587 275.9517 15.08836958 71202,6917.89,95.438,540.436,539.073,0.0
51738.0,STARLINK-3515,PAYLOAD,2023-06-05 04:45:55,15.08834973,9.87e-05,53.2155,166.4092,85.8922,274.2183,3.11e-05,2.07e-06,0.0,0 STARLINK-3515,1 51738U 22016AA  23156.19855624  .00000207  00000-0  31100-4 0  9990,2 51738  53.2155 166.4092 0000987  85.8922 274.2183 15.08834973 72423,6917.896,95.438,540.444,539.078,0.0
51738.0,STARLINK-3515,PAYLOAD,2023-06-05 07:56:41,15.08836187,9.89e-05,53.2155,165.8144,85.5042,274.6063,3.9811e-05,3.46e-06,0.0,0 STARLINK-3515,1 51738U 22016AA  23156.33103551  .00000346  00000-0  39811-4 0  9992,2 51738  53.2155 165.8144 0000989  85.5042 274.6063 15.08836187 72448,6917.892,95.438,540.441,539.073,0.0
51738.0,STARLINK-3515,PAYLOAD,2023-06-05 17:29:00,15.08836127,9.94e-05,53.2156,164.0301,83.649,276.4615,3.1307e-05,2.1e-06,0.0,0 STARLINK-3515,1 51738U 22016AA  23156.72847675  .00000210  00000-0  31307-4 0  9999,2 51738  53.2156 164.0301 0000994  83.6490 276.4615 15.08836127 71397,6917.892,95.438,540.445,539.07,0.0
51738.0,STARLINK-3515,PAYLOAD,2023-06-05 23:50:32,15.08836157,9.99e-05,53.2156,162.8405,83.3841,276.7265,2.977e-05,1.86e-06,0.0,0 STARLINK-3515,1 51738U 22016AA  23156.99343732  .00000186  00000-0  29770-4 0  9996,2 51738  53.2156 162.8405 0000999  83.3841 276.7265 15.08836157 72545,6917.892,95.438,540.448,539.066,0.0
51738.0,STARLINK-3515,PAYLOAD,2023-06-06 09:22:51,15.08837687,0.000101,53.2156,161.0562,82.3276,277.7831,4.0748e-05,3.61e-06,0.0,0 STARLINK-3515,1 51738U 22016AA  23157.39087677  .00000361  00000-0  40748-4 0  9997,2 51738  53.2156 161.0562 0001010  82.3276 277.7831 15.08837687 72602,6917.887,95.438,540.451,539.054,0.0
51738.0,STARLINK-3515,PAYLOAD,2023-06-06 17:19:47,15.08838269,0.0001004,53.2159,159.5694,84.1597,275.951,4.1242e-05,3.69e-06,0.0,0 STARLINK-3515,1 51738U 22016AA  23157.72207674  .00000369  00000-0  41242-4 0  9993,2 51738  53.2159 159.5694 0001004  84.1597 275.9510 15.08838269 72658,6917.886,95.438,540.445,539.056,0.0
51738.0,STARLINK-3515,PAYLOAD,2023-06-07 09:13:38,15.08841471,0.0001006,53.2159,156.5957,83.4679,276.6427,5.1936e-05,5.39e-06,0.0,0 STARLINK-3515,1 51738U 22016AA  23158.38447459  .00000539  00000-0  51936-4 0  9993,2 51738  53.2159 156.5957 0001006  83.4679 276.6427 15.08841471 72757,6917.876,95.437,540.437,539.045,0.0
51738.0,STARLINK-3515,PAYLOAD,2023-06-07 17:10:34,15.08839878,0.0001021,53.216,155.1089,83.0167,277.0941,4.0064e-05,3.5e-06,0.0,0 STARLINK-3515,1 51738U 22016AA  23158.71567584  .00000350  00000-0  40064-4 0  9993,2 51738  53.2160 155.1089 0001021  83.0167 277.0941 15.08839878 72805,6917.881,95.438,540.452,539.039,0.0
51738.0,STARLINK-3515,PAYLOAD,2023-06-07 23:32:07,15.08838623,0.000104,53.2159,153.9196,83.1552,276.9559,2.8697e-05,1.69e-06,0.0,0 STARLINK-3515,1 51738U 22016AA  23158.98063716  .00000169  00000-0  28697-4 0  9996,2 51738  53.2159 153.9196 0001040  83.1552 276.9559 15.08838623 72842,6917.885,95.438,540.469,539.03,0.0
51738.0,STARLINK-3515,PAYLOAD,2023-06-08 09:04:25,15.08840933,0.0001029,53.2159,152.1353,83.9153,276.1956,3.9298e-05,3.38e-06,0.0,0 STARLINK-3515,1 51738U 22016AA  23159.37807522  .00000338  00000-0  39298-4 0  9998,2 51738  53.2159 152.1353 0001029  83.9153 276.1956 15.08840933 72907,6917.878,95.437,540.454,539.031,0.0
51738.0,STARLINK-3515,PAYLOAD,2023-06-08 17:01:21,15.08841261,0.0001035,53.2159,150.6486,83.0364,277.0746,3.7646e-05,3.11e-06,0.0,0 STARLINK-3515,1 51738U 22016AA  23159.70927483  .00000311  00000-0  37646-4 0  9990,2 51738  53.2159 150.6486 0001035  83.0364 277.0746 15.08841261 72956,6917.877,95.437,540.458,539.026,0.0
51738.0,STARLINK-3515,PAYLOAD,2023-06-09 05:44:26,15.08841675,0.0001048,53.216,148.2697,82.8393,277.2718,3.4953e-05,2.69e-06,0.0,0 STARLINK-3515,1 51738U 22016AA  23160.23919410  .00000269  00000-0  34953-4 0  9991,2 51738  53.2160 148.2697 0001048  82.8393 277.2718 15.08841675 73038,6917.875,95.437,540.465,539.015,0.0
51738.0,STARLINK-3515,PAYLOAD,2023-06-10 05:35:14,15.08833103,0.0001055,53.2159,143.8084,86.6371,273.4742,-2.6951e-05,-7.17e-06,0.0,0 STARLINK-3515,1 51738U 22016AA  23161.23280263 -.00000717  00000-0 -26951-4 0  9998,2 51738  53.2159 143.8084 0001055  86.6371 273.4742 15.08833103 73181,6917.901,95.438,540.496,539.037,0.0
51738.0,STARLINK-3515,PAYLOAD,2023-06-10 08:46:00,15.08834398,0.0001077,53.2161,143.2137,88.218,271.8936,-1.6937e-05,-5.57e-06,0.0,0 STARLINK-3515,1 51738U 22016AA  23161.36528199 -.00000557  00000-0 -16937-4 0  9990,2 51738  53.2161 143.2137 0001077  88.2180 271.8936 15.08834398 73204,6917.898,95.438,540.508,539.017,0.0
51738.0,STARLINK-3515,PAYLOAD,2023-06-10 23:04:28,15.08839383,0.000111,53.2163,140.5378,87.8836,272.2283,1.5264e-05,-4.5e-07,0.0,0 STARLINK-3515,1 51738U 22016AA  23161.96143883 -.00000045  00000-0  15264-4 0  9992,2 51738  53.2163 140.5378 0001110  87.8836 272.2283 15.08839383 73292,6917.882,95.438,540.515,538.979,0.0
51738.0,STARLINK-3515,PAYLOAD,2023-06-11 08:36:46,15.08842679,0.0001131,53.2162,138.7539,87.144,272.9682,5.2245e-05,5.44e-06,0.0,0 STARLINK-3515,1 51738U 22016AA  23162.35887555  .00000544  00000-0  52245-4 0  9990,2 51738  53.2162 138.7539 0001131  87.1440 272.9682 15.08842679 73355,6917.872,95.437,540.52,538.955,0.0
51738.0,STARLINK-3515,PAYLOAD,2023-06-11 14:58:19,15.08841866,0.0001107,53.2162,137.5648,86.6976,273.4143,8.3666e-05,1.044e-05,0.0,0 STARLINK-3515,1 51738U 22016AA  23162.62383494  .00001044  00000-0  83666-4 0  9990,2 51738  53.2162 137.5648 0001107  86.6976 273.4143 15.08841866 73393,6917.875,95.437,540.505,538.974,0.0
51738.0,STARLINK-3515,PAYLOAD,2023-06-11 22:55:15,15.08835824,0.0001118,53.2165,136.0785,86.6868,273.4252,4.5324e-05,4.34e-06,0.0,0 STARLINK-3515,1 51738U 22016AA  23162.95504157  .00000434  00000-0  45324-4 0  9998,2 51738  53.2165 136.0785 0001118  86.6868 273.4252 15.08835824 73448,6917.893,95.438,540.532,538.985,0.0
51738.0,STARLINK-3515,PAYLOAD,2023-06-12 02:06:01,15.08837206,0.0001133,53.2166,135.4839,86.7333,273.3789,5.4392e-05,5.78e-06,0.0,0 STARLINK-3515,1 51738U 22016AA  23163.08752075  .00000578  00000-0  54392-4 0  9991,2 51738  53.2166 135.4839 0001133  86.7333 273.3789 15.08837206 72356,6917.889,95.438,540.538,538.97,0.0
51738.0,STARLINK-3515,PAYLOAD,2023-06-12 14:49:07,15.08836641,0.000115,53.2166,133.1051,86.1194,273.9929,3.8743e-05,3.29e-06,0.0,0 STARLINK-3515,1 51738U 22016AA  23163.61744249  .00000329  00000-0  38743-4 0  9990,2 51738  53.2166 133.1051 0001150  86.1194 273.9929 15.08836641 73541,6917.891,95.438,540.551,538.96,0.0
51738.0,STARLINK-3515,PAYLOAD,2023-06-13 06:42:58,15.08833366,0.0001212,53.2165,130.1309,87.846,272.2671,-4.6196e-05,-1.023e-05,0.0,0 STARLINK-3515,1 51738U 22016AA  23164.27984925 -.00001023  00000-0 -46196-4 0  9995,2 51738  53.2165 130.1309 0001212  87.8460 272.2671 15.08833366 73644,6917.901,95.438,540.604,538.927,0.0
51738.0,STARLINK-3515,PAYLOAD,2023-06-13 21:01:27,15.08835787,0.0001241,53.2177,127.4544,89.2028,270.9106,3.021e-05,1.93e-06,0.0,0 STARLINK-3515,1 51738U 22016AA  23164.87600698  .00000193  00000-0  30210-4 0  9998,2 51738  53.2177 127.4544 0001241  89.2028 270.9106 15.08835787 73732,6917.893,95.438,540.617,538.9,0.0
51738.0,STARLINK-3515,PAYLOAD,2023-06-14 06:33:45,15.08840607,0.000121,53.2173,125.6708,86.5001,273.613,3.6249e-05,2.89e-06,0.0,0 STARLINK-3515,1 51738U 22016AA  23165.27344419  .00000289  00000-0  36249-4 0  9993,2 51738  53.2173 125.6708 0001210  86.5001 273.6130 15.08840607 73797,6917.879,95.438,540.581,538.906,0.0
51738.0,STARLINK-3515,PAYLOAD,2023-06-14 20:52:14,15.08831574,0.0001112,53.2171,122.995,88.6932,271.4187,5.4496e-05,5.79e-06,0.0,0 STARLINK-3515,1 51738U 22016AA  23165.86961079  .00000579  00000-0  54496-4 0  9991,2 51738  53.2171 122.9950 0001112  88.6932 271.4187 15.08831574 72779,6917.906,95.438,540.54,539.002,0.0
51738.0,STARLINK-3515,PAYLOAD,2023-06-15 03:13:47,15.08832055,0.0001112,53.2169,121.8053,84.5413,275.5706,2.0612e-05,4e-07,0.0,0 STARLINK-3515,1 51738U 22016AA  23166.13457315  .00000040  00000-0  20612-4 0  9991,2 51738  53.2169 121.8053 0001112  84.5413 275.5706 15.08832055 73922,6917.905,95.438,540.539,539.0,0.0
51738.0,STARLINK-3515,PAYLOAD,2023-06-15 06:24:33,15.08833696,0.0001105,53.2168,121.2102,83.2345,276.8773,3.1804e-05,2.18e-06,0.0,0 STARLINK-3515,1 51738U 22016AA  23166.26705229  .00000218  00000-0  31804-4 0  9997,2 51738  53.2168 121.2102 0001105  83.2345 276.8773 15.08833696 73944,6917.9,95.438,540.529,539.0,0.0
